CCSDS_OMM_VERS = 2.0
CREATION_DATE  = 
ORIGINATOR     = 

OBJECT_NAME    = IDEFIX & ARIANE 42P R/B
OBJECT_ID      = 2002-021B
CENTER_NAME    = EARTH
REF_FRAME      = TEME
TIME_SYSTEM    = UTC
MEAN_ELEMENT_THEORY = SGP/SGP4

EPOCH          = 2025-12-11T06:06:45.811296
MEAN_MOTION    = 14.30949033
ECCENTRICITY   = .00129479
INCLINATION    = 98.5784
RA_OF_ASC_NODE = 279.9648
ARG_OF_PERICENTER = 87.6347
MEAN_ANOMALY   = 272.6318

EPHEMERIS_TYPE = 0
CLASSIFICATION_TYPE = U
NORAD_CAT_ID   = 27422
ELEMENT_SET_NO = 999
REV_AT_EPOCH   = 23137
BSTAR          = .23373855E-3
MEAN_MOTION_DOT = .571E-5
MEAN_MOTION_DDOT = 0

CCSDS_OMM_VERS = 2.0
CREATION_DATE  = 
ORIGINATOR     = 

OBJECT_NAME    = AQUA
OBJECT_ID      = 2002-022A
CENTER_NAME    = EARTH
REF_FRAME      = TEME
TIME_SYSTEM    = UTC
MEAN_ELEMENT_THEORY = SGP/SGP4

EPOCH          = 2025-12-11T08:10:38.402400
MEAN_MOTION    = 14.61804511
ECCENTRICITY   = .0001029
INCLINATION    = 98.4037
RA_OF_ASC_NODE = 306.1970
ARG_OF_PERICENTER = 115.2899
MEAN_ANOMALY   = 52.3929

EPHEMERIS_TYPE = 0
CLASSIFICATION_TYPE = U
NORAD_CAT_ID   = 27424
ELEMENT_SET_NO = 999
REV_AT_EPOCH   = 25582
BSTAR          = .38470857E-3
MEAN_MOTION_DOT = .1872E-4
MEAN_MOTION_DDOT = 0

CCSDS_OMM_VERS = 2.0
CREATION_DATE  = 
ORIGINATOR     = 

OBJECT_NAME    = CZ-4B R/B
OBJECT_ID      = 2002-024C
CENTER_NAME    = EARTH
REF_FRAME      = TEME
TIME_SYSTEM    = UTC
MEAN_ELEMENT_THEORY = SGP/SGP4

EPOCH          = 2025-12-11T03:36:00.641952
MEAN_MOTION    = 14.14527335
ECCENTRICITY   = .00491563
INCLINATION    = 98.8999
RA_OF_ASC_NODE = 33.9271
ARG_OF_PERICENTER = 274.5101
MEAN_ANOMALY   = 94.9856

EPHEMERIS_TYPE = 0
CLASSIFICATION_TYPE = U
NORAD_CAT_ID   = 27432
ELEMENT_SET_NO = 999
REV_AT_EPOCH   = 21672
BSTAR          = .66294842E-4
MEAN_MOTION_DOT = .84E-6
MEAN_MOTION_DDOT = 0

CCSDS_OMM_VERS = 2.0
CREATION_DATE  = 
ORIGINATOR     = 

OBJECT_NAME    = MIDORI II (ADEOS-II)
OBJECT_ID      = 2002-056A
CENTER_NAME    = EARTH
REF_FRAME      = TEME
TIME_SYSTEM    = UTC
MEAN_ELEMENT_THEORY = SGP/SGP4

EPOCH          = 2025-12-10T14:45:48.962592
MEAN_MOTION    = 14.29203564
ECCENTRICITY   = .0000077
INCLINATION    = 98.7632
RA_OF_ASC_NODE = 297.5602
ARG_OF_PERICENTER = 121.3907
MEAN_ANOMALY   = 238.7282

EPHEMERIS_TYPE = 0
CLASSIFICATION_TYPE = U
NORAD_CAT_ID   = 27597
ELEMENT_SET_NO = 999
REV_AT_EPOCH   = 19757
BSTAR          = .20701E-3
MEAN_MOTION_DOT = .481E-5
MEAN_MOTION_DDOT = 0

CCSDS_OMM_VERS = 2.0
CREATION_DATE  = 
ORIGINATOR     = 

OBJECT_NAME    = H-2A R/B
OBJECT_ID      = 2002-056E
CENTER_NAME    = EARTH
REF_FRAME      = TEME
TIME_SYSTEM    = UTC
MEAN_ELEMENT_THEORY = SGP/SGP4

EPOCH          = 2025-12-11T03:15:12.472128
MEAN_MOTION    = 14.33673943
ECCENTRICITY   = .00714065
INCLINATION    = 98.3063
RA_OF_ASC_NODE = 303.9561
ARG_OF_PERICENTER = 65.8421
MEAN_ANOMALY   = 305.2589

EPHEMERIS_TYPE = 0
CLASSIFICATION_TYPE = U
NORAD_CAT_ID   = 27601
ELEMENT_SET_NO = 999
REV_AT_EPOCH   = 20142
BSTAR          = .21125455E-3
MEAN_MOTION_DOT = .562E-5
MEAN_MOTION_DDOT = 0

CCSDS_OMM_VERS = 2.0
CREATION_DATE  = 
ORIGINATOR     = 

OBJECT_NAME    = CZ-4B R/B
OBJECT_ID      = 2003-049C
CENTER_NAME    = EARTH
REF_FRAME      = TEME
TIME_SYSTEM    = UTC
MEAN_ELEMENT_THEORY = SGP/SGP4

EPOCH          = 2025-12-11T05:17:01.902624
MEAN_MOTION    = 14.54907042
ECCENTRICITY   = .00489292
INCLINATION    = 98.6788
RA_OF_ASC_NODE = 331.7267
ARG_OF_PERICENTER = 140.6553
MEAN_ANOMALY   = 219.8214

EPHEMERIS_TYPE = 0
CLASSIFICATION_TYPE = U
NORAD_CAT_ID   = 28059
ELEMENT_SET_NO = 999
REV_AT_EPOCH   = 17373
BSTAR          = .15190975E-3
MEAN_MOTION_DOT = .612E-5
MEAN_MOTION_DDOT = 0

CCSDS_OMM_VERS = 2.0
CREATION_DATE  = 
ORIGINATOR     = 

OBJECT_NAME    = CZ-2C R/B
OBJECT_ID      = 2004-012C
CENTER_NAME    = EARTH
REF_FRAME      = TEME
TIME_SYSTEM    = UTC
MEAN_ELEMENT_THEORY = SGP/SGP4

EPOCH          = 2025-12-11T06:14:11.880672
MEAN_MOTION    = 15.55367388
ECCENTRICITY   = .0016574
INCLINATION    = 97.7425
RA_OF_ASC_NODE = 37.7583
ARG_OF_PERICENTER = 276.2106
MEAN_ANOMALY   = 83.7259

EPHEMERIS_TYPE = 0
CLASSIFICATION_TYPE = U
NORAD_CAT_ID   = 28222
ELEMENT_SET_NO = 999
REV_AT_EPOCH   = 19049
BSTAR          = .93676275E-3
MEAN_MOTION_DOT = .64338E-3
MEAN_MOTION_DDOT = 0

CCSDS_OMM_VERS = 2.0
CREATION_DATE  = 
ORIGINATOR     = 

OBJECT_NAME    = SL-16 R/B
OBJECT_ID      = 2004-021B
CENTER_NAME    = EARTH
REF_FRAME      = TEME
TIME_SYSTEM    = UTC
MEAN_ELEMENT_THEORY = SGP/SGP4

EPOCH          = 2025-12-11T06:40:16.077504
MEAN_MOTION    = 14.14581194
ECCENTRICITY   = .00053733
INCLINATION    = 71.0018
RA_OF_ASC_NODE = 58.0330
ARG_OF_PERICENTER = 202.5935
MEAN_ANOMALY   = 157.4951

EPHEMERIS_TYPE = 0
CLASSIFICATION_TYPE = U
NORAD_CAT_ID   = 28353
ELEMENT_SET_NO = 999
REV_AT_EPOCH   = 11033
BSTAR          = -.80762888E-4
MEAN_MOTION_DOT = -.203E-5
MEAN_MOTION_DDOT = 0

CCSDS_OMM_VERS = 2.0
CREATION_DATE  = 
ORIGINATOR     = 

OBJECT_NAME    = CZ-4B R/B
OBJECT_ID      = 2004-035C
CENTER_NAME    = EARTH
REF_FRAME      = TEME
TIME_SYSTEM    = UTC
MEAN_ELEMENT_THEORY = SGP/SGP4

EPOCH          = 2025-12-11T01:18:31.884480
MEAN_MOTION    = 15.27323929
ECCENTRICITY   = .00316612
INCLINATION    = 97.3613
RA_OF_ASC_NODE = 15.4207
ARG_OF_PERICENTER = 283.8046
MEAN_ANOMALY   = 75.9671

EPHEMERIS_TYPE = 0
CLASSIFICATION_TYPE = U
NORAD_CAT_ID   = 28415
ELEMENT_SET_NO = 999
REV_AT_EPOCH   = 16637
BSTAR          = .46255346E-3
MEAN_MOTION_DOT = .12494E-3
MEAN_MOTION_DDOT = 0

CCSDS_OMM_VERS = 2.0
CREATION_DATE  = 
ORIGINATOR     = 

OBJECT_NAME    = CZ-2C R/B
OBJECT_ID      = 2004-046B
CENTER_NAME    = EARTH
REF_FRAME      = TEME
TIME_SYSTEM    = UTC
MEAN_ELEMENT_THEORY = SGP/SGP4

EPOCH          = 2025-12-11T06:37:33.935808
MEAN_MOTION    = 14.26939814
ECCENTRICITY   = .01405428
INCLINATION    = 98.1989
RA_OF_ASC_NODE = 260.7449
ARG_OF_PERICENTER = 56.6015
MEAN_ANOMALY   = 304.8522

EPHEMERIS_TYPE = 0
CLASSIFICATION_TYPE = U
NORAD_CAT_ID   = 28480
ELEMENT_SET_NO = 999
REV_AT_EPOCH   = 9589
BSTAR          = .14855592E-3
MEAN_MOTION_DOT = .36E-5
MEAN_MOTION_DDOT = 0

CCSDS_OMM_VERS = 2.0
CREATION_DATE  = 
ORIGINATOR     = 

OBJECT_NAME    = ARIANE 5 R/B
OBJECT_ID      = 2004-049H
CENTER_NAME    = EARTH
REF_FRAME      = TEME
TIME_SYSTEM    = UTC
MEAN_ELEMENT_THEORY = SGP/SGP4

EPOCH          = 2025-12-11T07:19:08.226048
MEAN_MOTION    = 14.85007370
ECCENTRICITY   = .00833552
INCLINATION    = 98.2522
RA_OF_ASC_NODE = 145.5348
ARG_OF_PERICENTER = 277.6879
MEAN_ANOMALY   = 81.4875

EPHEMERIS_TYPE = 0
CLASSIFICATION_TYPE = U
NORAD_CAT_ID   = 28499
ELEMENT_SET_NO = 999
REV_AT_EPOCH   = 13267
BSTAR          = .21271111E-3
MEAN_MOTION_DOT = .1865E-4
MEAN_MOTION_DDOT = 0

CCSDS_OMM_VERS = 2.0
CREATION_DATE  = 
ORIGINATOR     = 

OBJECT_NAME    = CZ-2D R/B
OBJECT_ID      = 2005-024B
CENTER_NAME    = EARTH
REF_FRAME      = TEME
TIME_SYSTEM    = UTC
MEAN_ELEMENT_THEORY = SGP/SGP4

EPOCH          = 2025-12-11T07:18:31.252032
MEAN_MOTION    = 15.53068850
ECCENTRICITY   = .00056959
INCLINATION    = 97.3638
RA_OF_ASC_NODE = 352.7133
ARG_OF_PERICENTER = 11.5534
MEAN_ANOMALY   = 348.5849

EPHEMERIS_TYPE = 0
CLASSIFICATION_TYPE = U
NORAD_CAT_ID   = 28738
ELEMENT_SET_NO = 999
REV_AT_EPOCH   = 12603
BSTAR          = .77639309E-3
MEAN_MOTION_DOT = .48685E-3
MEAN_MOTION_DDOT = 0

