IDEFIX & ARIANE 42P R/B 
1 27422U 02021B   25345.25469689  .00000571  00000+0  23374-3 0  9994
2 27422  98.5784 279.9648 0012947  87.6347 272.6318 14.30949033231374
AQUA                    
1 27424U 02022A   25345.34072225  .00001872  00000+0  38471-3 0  9992
2 27424  98.4037 306.1970 0001029 115.2899  52.3929 14.61804511255828
CZ-4B R/B               
1 27432U 02024C   25345.15000743  .00000084  00000+0  66295-4 0  9998
2 27432  98.8999  33.9271 0049156 274.5101  94.9856 14.14527335216726
MIDORI II (ADEOS-II)    
1 27597U 02056A   25344.61515003  .00000481  00000+0  20701-3 0  9997
2 27597  98.7632 297.5602 0000077 121.3907 238.7282 14.29203564197572
H-2A R/B                
1 27601U 02056E   25345.13556102  .00000562  00000+0  21125-3 0  9997
2 27601  98.3063 303.9561 0071406  65.8421 305.2589 14.33673943201422
CZ-4B R/B               
1 28059U 03049C   25345.22016091  .00000612  00000+0  15191-3 0  9998
2 28059  98.6788 331.7267 0048929 140.6553 219.8214 14.54907042173731
CZ-2C R/B               
1 28222U 04012C   25345.25985973  .00064338  00000+0  93676-3 0  9997
2 28222  97.7425  37.7583 0016574 276.2106  83.7259 15.55367388190490
SL-16 R/B               
1 28353U 04021B   25345.27796386 -.00000203  00000+0 -80763-4 0  9999
2 28353  71.0018  58.0330 0005373 202.5935 157.4951 14.14581194110331
CZ-4B R/B               
1 28415U 04035C   25345.05453570  .00012494  00000+0  46255-3 0  9994
2 28415  97.3613  15.4207 0031661 283.8046  75.9671 15.27323929166379
CZ-2C R/B               
1 28480U 04046B   25345.27608722  .00000360  00000+0  14856-3 0  9994
2 28480  98.1989 260.7449 0140542  56.6015 304.8522 14.26939814 95891
ARIANE 5 R/B            
1 28499U 04049H   25345.30495632  .00001865  00000+0  21271-3 0  9995
2 28499  98.2522 145.5348 0083355 277.6879  81.4875 14.85007370132679
CZ-2D R/B               
1 28738U 05024B   25345.30452838  .00048685  00000+0  77639-3 0  9996
2 28738  97.3638 352.7133 0005695  11.5534 348.5849 15.53068850126038
